[{"OBJECT_NAME":"STARLINK-5624","OBJECT_ID":"2023-014AB","EPOCH":"2026-03-09T10:13:02.063712","MEAN_MOTION":14.98326154,"ECCENTRICITY":0.00037262,"INCLINATION":69.9988,"RA_OF_ASC_NODE":85.0849,"ARG_OF_PERICENTER":272.6312,"MEAN_ANOMALY":87.442,"EPHEMERIS_TYPE":0,"CLASSIFICATION_TYPE":"U","NORAD_CAT_ID":55416,"ELEMENT_SET_NO":999,"REV_AT_EPOCH":17152,"BSTAR":0.00015353689,"MEAN_MOTION_DOT":1.739e-5,"MEAN_MOTION_DDOT":0},{"OBJECT_NAME":"CZ-2F R\/B","OBJECT_ID":"2026-024B","EPOCH":"2026-03-09T21:33:36.475776","MEAN_MOTION":15.34345765,"ECCENTRICITY":0.01743731,"INCLINATION":49.9895,"RA_OF_ASC_NODE":13.5528,"ARG_OF_PERICENTER":275.7155,"MEAN_ANOMALY":82.3946,"EPHEMERIS_TYPE":0,"CLASSIFICATION_TYPE":"U","NORAD_CAT_ID":67690,"ELEMENT_SET_NO":999,"REV_AT_EPOCH":472,"BSTAR":0.00037009281,"MEAN_MOTION_DOT":0.00020274,"MEAN_MOTION_DDOT":0}]
